[{"OBJECT_NAME":"STARLINK-30788","OBJECT_ID":"2023-166K","EPOCH":"2026-03-09T17:39:05.398560","MEAN_MOTION":15.30184285,"ECCENTRICITY":0.00012416,"INCLINATION":53.1605,"RA_OF_ASC_NODE":219.5892,"ARG_OF_PERICENTER":86.9823,"MEAN_ANOMALY":273.132,"EPHEMERIS_TYPE":0,"CLASSIFICATION_TYPE":"U","NORAD_CAT_ID":58159,"ELEMENT_SET_NO":999,"REV_AT_EPOCH":13303,"BSTAR":1.7382716e-5,"MEAN_MOTION_DOT":1.55e-6,"MEAN_MOTION_DDOT":0},{"OBJECT_NAME":"HERMES-3","OBJECT_ID":"2025-052BR","EPOCH":"2026-03-09T22:30:01.073952","MEAN_MOTION":15.30039786,"ECCENTRICITY":0.00079928,"INCLINATION":97.3987,"RA_OF_ASC_NODE":324.6131,"ARG_OF_PERICENTER":112.9583,"MEAN_ANOMALY":247.2502,"EPHEMERIS_TYPE":0,"CLASSIFICATION_TYPE":"U","NORAD_CAT_ID":63835,"ELEMENT_SET_NO":999,"REV_AT_EPOCH":5486,"BSTAR":0.0006995793,"MEAN_MOTION_DOT":0.00020316,"MEAN_MOTION_DDOT":0}]
