STARLINK-30788          
1 58159U 23166K   26068.73547915  .00000155  00000+0  17383-4 0  9995
2 58159  53.1605 219.5892 0001241  86.9823 273.1320 15.30184285133035
HERMES-3                
1 63835U 25052BR  26068.93751242  .00020316  00000+0  69958-3 0  9995
2 63835  97.3987 324.6131 0007993 112.9583 247.2502 15.30039785 54863
